QIANFAN-118
1 68645U 26075K   26113.69232844 -.00000021  00000+0 -16159-4 0  9990
2 68645  88.9899 326.8549 0014821 160.4825 199.6937 14.21388967  2297
QIANFAN-119
1 68646U 26075L   26113.68739440  .00000145  00000+0  58140-4 0  9995
2 68646  88.9902 326.8544 0015160 162.2007 197.9719 14.22770889  2295
QIANFAN-120
1 68647U 26075M   26113.68658634  .00000293  00000+0  12547-3 0  9995
2 68647  88.9902 326.8543 0015248 162.2125 197.9604 14.22213568  2292
QIANFAN-121
1 68648U 26075N   26113.68486539  .00000161  00000+0  65657-4 0  9994
2 68648  88.9901 326.8540 0014663 163.2539 196.9139 14.22351664  2291
QIANFAN-122
1 68649U 26075P   26113.68205588  .00000152  00000+0  60968-4 0  9998
2 68649  88.9901 326.8535 0014809 162.4524 197.7183 14.22896300  2292
QIANFAN-123
1 68650U 26075Q   26113.69643722  .00000113  00000+0  46322-4 0  9992
2 68650  88.9898 326.8552 0015149 162.4343 197.7374 14.20189509  2268
QIANFAN-124
1 68651U 26075R   26113.68187869  .00000158  00000+0  63880-4 0  9994
2 68651  88.9901 326.8535 0015384 162.2942 197.8789 14.22716424  2297
QIANFAN-125
1 68652U 26075S   26113.67914568  .00000146  00000+0  58018-4 0  9992
2 68652  88.9903 326.8532 0015096 162.7621 197.4087 14.23396362  2299
QIANFAN-126
1 68653U 26075T   26113.67429272  .00000156  00000+0  60206-4 0  9999
2 68653  88.9901 326.8522 0015150 162.2576 197.9150 14.24950767  2294
HULIANWANG DIGUI-164
1 68656U 26076A   26113.50619026 -.00000906  00000+0 -95014-3 0  9992
2 68656  86.4953  62.9462 0001727  84.5775 275.5586 13.76120933  2038
HULIANWANG DIGUI-165
1 68657U 26076B   26113.35802334  .00000175  00000+0  16261-3 0  9995
2 68657  86.4975  63.0023 0001475 100.1490 259.9840 13.76238025  2016
HULIANWANG DIGUI-166
1 68658U 26076C   26113.42802237 -.00000481  00000+0 -50981-3 0  9995
2 68658  86.4917  62.9601 0001625  87.9245 272.2104 13.76458007  2026
HULIANWANG DIGUI-167
1 68659U 26076D   26113.57005199 -.00000047  00000+0 -65237-4 0  9993
2 68659  86.4984  62.9174 0001040 137.5540 222.5704 13.76483281  2045
HULIANWANG DIGUI-168
1 68660U 26076E   26113.56680615 -.00000594  00000+0 -62460-3 0  9997
2 68660  86.5026  62.9138 0000753  48.4519 311.6709 13.76549072  2036
CZ-8 R/B
1 68654U 26075U   26113.72805354  .00000150  00000+0  41097-4 0  9996
2 68654  88.9892 326.8008 0073507  67.1238 293.7702 14.40036149  2319
