[{"OBJECT_NAME":"QIANFAN-118","OBJECT_ID":"2026-075K","EPOCH":"2026-04-23T16:36:57.177216","MEAN_MOTION":14.21388967,"ECCENTRICITY":0.00148214,"INCLINATION":88.9899,"RA_OF_ASC_NODE":326.8549,"ARG_OF_PERICENTER":160.4825,"MEAN_ANOMALY":199.6937,"EPHEMERIS_TYPE":0,"CLASSIFICATION_TYPE":"U","NORAD_CAT_ID":68645,"ELEMENT_SET_NO":999,"REV_AT_EPOCH":229,"BSTAR":-1.6159397e-5,"MEAN_MOTION_DOT":-2.1e-7,"MEAN_MOTION_DDOT":0},{"OBJECT_NAME":"QIANFAN-119","OBJECT_ID":"2026-075L","EPOCH":"2026-04-23T16:29:50.876160","MEAN_MOTION":14.22770889,"ECCENTRICITY":0.00151602,"INCLINATION":88.9902,"RA_OF_ASC_NODE":326.8544,"ARG_OF_PERICENTER":162.2007,"MEAN_ANOMALY":197.9719,"EPHEMERIS_TYPE":0,"CLASSIFICATION_TYPE":"U","NORAD_CAT_ID":68646,"ELEMENT_SET_NO":999,"REV_AT_EPOCH":229,"BSTAR":5.8139807e-5,"MEAN_MOTION_DOT":1.45e-6,"MEAN_MOTION_DDOT":0},{"OBJECT_NAME":"QIANFAN-120","OBJECT_ID":"2026-075M","EPOCH":"2026-04-23T16:28:41.059776","MEAN_MOTION":14.22213568,"ECCENTRICITY":0.00152481,"INCLINATION":88.9902,"RA_OF_ASC_NODE":326.8543,"ARG_OF_PERICENTER":162.2125,"MEAN_ANOMALY":197.9604,"EPHEMERIS_TYPE":0,"CLASSIFICATION_TYPE":"U","NORAD_CAT_ID":68647,"ELEMENT_SET_NO":999,"REV_AT_EPOCH":229,"BSTAR":0.00012547358,"MEAN_MOTION_DOT":2.93e-6,"MEAN_MOTION_DDOT":0},{"OBJECT_NAME":"QIANFAN-121","OBJECT_ID":"2026-075N","EPOCH":"2026-04-23T16:26:12.369696","MEAN_MOTION":14.22351664,"ECCENTRICITY":0.00146636,"INCLINATION":88.9901,"RA_OF_ASC_NODE":326.854,"ARG_OF_PERICENTER":163.2539,"MEAN_ANOMALY":196.9139,"EPHEMERIS_TYPE":0,"CLASSIFICATION_TYPE":"U","NORAD_CAT_ID":68648,"ELEMENT_SET_NO":999,"REV_AT_EPOCH":229,"BSTAR":6.5657268e-5,"MEAN_MOTION_DOT":1.61e-6,"MEAN_MOTION_DDOT":0},{"OBJECT_NAME":"QIANFAN-122","OBJECT_ID":"2026-075P","EPOCH":"2026-04-23T16:22:09.628032","MEAN_MOTION":14.228963,"ECCENTRICITY":0.0014809,"INCLINATION":88.9901,"RA_OF_ASC_NODE":326.8535,"ARG_OF_PERICENTER":162.4524,"MEAN_ANOMALY":197.7183,"EPHEMERIS_TYPE":0,"CLASSIFICATION_TYPE":"U","NORAD_CAT_ID":68649,"ELEMENT_SET_NO":999,"REV_AT_EPOCH":229,"BSTAR":6.0967537e-5,"MEAN_MOTION_DOT":1.52e-6,"MEAN_MOTION_DDOT":0},{"OBJECT_NAME":"QIANFAN-123","OBJECT_ID":"2026-075Q","EPOCH":"2026-04-23T16:42:52.175808","MEAN_MOTION":14.20189509,"ECCENTRICITY":0.0015149,"INCLINATION":88.9898,"RA_OF_ASC_NODE":326.8552,"ARG_OF_PERICENTER":162.4343,"MEAN_ANOMALY":197.7374,"EPHEMERIS_TYPE":0,"CLASSIFICATION_TYPE":"U","NORAD_CAT_ID":68650,"ELEMENT_SET_NO":999,"REV_AT_EPOCH":226,"BSTAR":4.6321859e-5,"MEAN_MOTION_DOT":1.13e-6,"MEAN_MOTION_DDOT":0},{"OBJECT_NAME":"QIANFAN-124","OBJECT_ID":"2026-075R","EPOCH":"2026-04-23T16:21:54.318816","MEAN_MOTION":14.22716424,"ECCENTRICITY":0.0015384,"INCLINATION":88.9901,"RA_OF_ASC_NODE":326.8535,"ARG_OF_PERICENTER":162.2942,"MEAN_ANOMALY":197.8789,"EPHEMERIS_TYPE":0,"CLASSIFICATION_TYPE":"U","NORAD_CAT_ID":68651,"ELEMENT_SET_NO":999,"REV_AT_EPOCH":229,"BSTAR":6.3880253e-5,"MEAN_MOTION_DOT":1.58e-6,"MEAN_MOTION_DDOT":0},{"OBJECT_NAME":"QIANFAN-125","OBJECT_ID":"2026-075S","EPOCH":"2026-04-23T16:17:58.186752","MEAN_MOTION":14.23396362,"ECCENTRICITY":0.00150965,"INCLINATION":88.9903,"RA_OF_ASC_NODE":326.8532,"ARG_OF_PERICENTER":162.7621,"MEAN_ANOMALY":197.4087,"EPHEMERIS_TYPE":0,"CLASSIFICATION_TYPE":"U","NORAD_CAT_ID":68652,"ELEMENT_SET_NO":999,"REV_AT_EPOCH":229,"BSTAR":5.8017994e-5,"MEAN_MOTION_DOT":1.46e-6,"MEAN_MOTION_DDOT":0},{"OBJECT_NAME":"QIANFAN-126","OBJECT_ID":"2026-075T","EPOCH":"2026-04-23T16:10:58.891008","MEAN_MOTION":14.24950767,"ECCENTRICITY":0.00151502,"INCLINATION":88.9901,"RA_OF_ASC_NODE":326.8522,"ARG_OF_PERICENTER":162.2576,"MEAN_ANOMALY":197.915,"EPHEMERIS_TYPE":0,"CLASSIFICATION_TYPE":"U","NORAD_CAT_ID":68653,"ELEMENT_SET_NO":999,"REV_AT_EPOCH":229,"BSTAR":6.0206003e-5,"MEAN_MOTION_DOT":1.56e-6,"MEAN_MOTION_DDOT":0},{"OBJECT_NAME":"CZ-8 R/B","OBJECT_ID":"2026-075U","EPOCH":"2026-04-23T17:28:23.825856","MEAN_MOTION":14.40036149,"ECCENTRICITY":0.00735079,"INCLINATION":88.9892,"RA_OF_ASC_NODE":326.8008,"ARG_OF_PERICENTER":67.1238,"MEAN_ANOMALY":293.7702,"EPHEMERIS_TYPE":0,"CLASSIFICATION_TYPE":"U","NORAD_CAT_ID":68654,"ELEMENT_SET_NO":999,"REV_AT_EPOCH":231,"BSTAR":4.1097003e-5,"MEAN_MOTION_DOT":1.5e-6,"MEAN_MOTION_DDOT":0},{"OBJECT_NAME":"HULIANWANG DIGUI-164","OBJECT_ID":"2026-076A","EPOCH":"2026-04-23T12:08:54.838464","MEAN_MOTION":13.76120933,"ECCENTRICITY":0.00017272,"INCLINATION":86.4953,"RA_OF_ASC_NODE":62.9462,"ARG_OF_PERICENTER":84.5775,"MEAN_ANOMALY":275.5586,"EPHEMERIS_TYPE":0,"CLASSIFICATION_TYPE":"U","NORAD_CAT_ID":68656,"ELEMENT_SET_NO":999,"REV_AT_EPOCH":203,"BSTAR":-0.0009501449,"MEAN_MOTION_DOT":-9.06e-6,"MEAN_MOTION_DDOT":0},{"OBJECT_NAME":"HULIANWANG DIGUI-165","OBJECT_ID":"2026-076B","EPOCH":"2026-04-23T08:35:33.216576","MEAN_MOTION":13.76238025,"ECCENTRICITY":0.00014756,"INCLINATION":86.4975,"RA_OF_ASC_NODE":63.0023,"ARG_OF_PERICENTER":100.149,"MEAN_ANOMALY":259.984,"EPHEMERIS_TYPE":0,"CLASSIFICATION_TYPE":"U","NORAD_CAT_ID":68657,"ELEMENT_SET_NO":999,"REV_AT_EPOCH":201,"BSTAR":0.000162612,"MEAN_MOTION_DOT":1.75e-6,"MEAN_MOTION_DDOT":0},{"OBJECT_NAME":"HULIANWANG DIGUI-166","OBJECT_ID":"2026-076C","EPOCH":"2026-04-23T10:16:21.132768","MEAN_MOTION":13.76458007,"ECCENTRICITY":0.0001625,"INCLINATION":86.4917,"RA_OF_ASC_NODE":62.9601,"ARG_OF_PERICENTER":87.9245,"MEAN_ANOMALY":272.2104,"EPHEMERIS_TYPE":0,"CLASSIFICATION_TYPE":"U","NORAD_CAT_ID":68658,"ELEMENT_SET_NO":999,"REV_AT_EPOCH":202,"BSTAR":-0.00050981099,"MEAN_MOTION_DOT":-4.81e-6,"MEAN_MOTION_DDOT":0},{"OBJECT_NAME":"HULIANWANG DIGUI-167","OBJECT_ID":"2026-076D","EPOCH":"2026-04-23T13:40:52.491936","MEAN_MOTION":13.76483281,"ECCENTRICITY":0.00010406,"INCLINATION":86.4984,"RA_OF_ASC_NODE":62.9174,"ARG_OF_PERICENTER":137.554,"MEAN_ANOMALY":222.5704,"EPHEMERIS_TYPE":0,"CLASSIFICATION_TYPE":"U","NORAD_CAT_ID":68659,"ELEMENT_SET_NO":999,"REV_AT_EPOCH":204,"BSTAR":-6.5237284e-5,"MEAN_MOTION_DOT":-4.7e-7,"MEAN_MOTION_DDOT":0},{"OBJECT_NAME":"HULIANWANG DIGUI-168","OBJECT_ID":"2026-076E","EPOCH":"2026-04-23T13:36:12.051360","MEAN_MOTION":13.76549072,"ECCENTRICITY":7.533e-5,"INCLINATION":86.5026,"RA_OF_ASC_NODE":62.9138,"ARG_OF_PERICENTER":48.4519,"MEAN_ANOMALY":311.6709,"EPHEMERIS_TYPE":0,"CLASSIFICATION_TYPE":"U","NORAD_CAT_ID":68660,"ELEMENT_SET_NO":999,"REV_AT_EPOCH":203,"BSTAR":-0.00062460047,"MEAN_MOTION_DOT":-5.94e-6,"MEAN_MOTION_DDOT":0}]
